NORAD_CAT_ID,OBJECT_NAME,OBJECT_TYPE,EPOCH,MEAN_MOTION,ECCENTRICITY,INCLINATION,RA_OF_ASC_NODE,ARG_OF_PERICENTER,MEAN_ANOMALY,BSTAR,MEAN_MOTION_DOT,MEAN_MOTION_DDOT,TLE_LINE0,TLE_LINE1,TLE_LINE2,SEMIMAJOR_AXIS,PERIOD,APOGEE,PERIGEE,DECAYED
49767.0,STARLINK-3192,PAYLOAD,2023-05-06 23:54:04,15.08870279,7.36e-05,53.2166,117.5033,75.1289,284.9785,-0.00035836,-5.991e-05,0.0,0 STARLINK-3192,1 49767U 21115AV  23126.99587978 -.00005991  00000-0 -35836-3 0  9993,2 49767  53.2166 117.5033 0000736  75.1289 284.9785 15.08870279 80138,6917.788,95.436,540.162,539.144,0.0
49767.0,STARLINK-3192,PAYLOAD,2023-05-07 06:15:36,15.08844465,0.0001054,53.2162,116.3143,82.0955,278.0157,6.1876e-05,6.97e-06,0.0,0 STARLINK-3192,1 49767U 21115AV  23127.26084028  .00000697  00000-0  61876-4 0  9992,2 49767  53.2162 116.3143 0001054  82.0955 278.0157 15.08844465 80173,6917.867,95.437,540.461,539.003,0.0
49767.0,STARLINK-3192,PAYLOAD,2023-05-07 15:47:55,15.08838121,0.0001051,53.2161,114.5304,80.7365,279.3746,1.0317e-06,-2.71e-06,0.0,0 STARLINK-3192,1 49767U 21115AV  23127.65828571 -.00000271  00000-0  10317-5 0  9998,2 49767  53.2161 114.5304 0001051  80.7365 279.3746 15.08838121 80235,6917.886,95.438,540.478,539.024,0.0
49767.0,STARLINK-3192,PAYLOAD,2023-05-08 15:38:43,15.08828382,0.0001068,53.2161,110.0708,86.0034,274.108,0.00015221,2.135e-05,0.0,0 STARLINK-3192,1 49767U 21115AV  23128.65189112  .00002135  00000-0  15221-3 0  9997,2 49767  53.2161 110.0708 0001068  86.0034 274.1080 15.08828382 79278,6917.916,95.438,540.52,539.042,0.0
49767.0,STARLINK-3192,PAYLOAD,2023-05-09 10:43:20,15.08846324,0.0001064,53.2164,106.5033,93.842,266.2694,0.00010411,1.37e-05,0.0,0 STARLINK-3192,1 49767U 21115AV  23129.44676115  .00001370  00000-0  10411-3 0  9995,2 49767  53.2164 106.5033 0001064  93.8420 266.2694 15.08846324 79395,6917.861,95.437,540.462,538.99,0.0
49767.0,STARLINK-3192,PAYLOAD,2023-05-10 05:47:58,15.08841126,0.0001015,53.2165,102.9339,88.6544,271.4564,8.9241e-05,1.133e-05,0.0,0 STARLINK-3192,1 49767U 21115AV  23130.24164726  .00001133  00000-0  89241-4 0  9990,2 49767  53.2165 102.9339 0001015  88.6544 271.4564 15.08841126 79513,6917.877,95.437,540.444,539.04,0.0
49767.0,STARLINK-3192,PAYLOAD,2023-05-11 04:03:22,15.08843615,0.0001061,53.2166,98.7708,91.9718,268.1395,6.4202e-05,7.34e-06,0.0,0 STARLINK-3192,1 49767U 21115AV  23131.16900602  .00000734  00000-0  64202-4 0  9999,2 49767  53.2166  98.7708 0001061  91.9718 268.1395 15.08843615 80766,6917.869,95.437,540.468,539.0,0.0
49767.0,STARLINK-3192,PAYLOAD,2023-05-12 03:54:09,15.08839184,0.0001088,53.2163,94.3105,88.5326,271.5791,1.5495e-05,-4.1e-07,0.0,0 STARLINK-3192,1 49767U 21115AV  23132.16261028 -.00000041  00000-0  15495-4 0  9994,2 49767  53.2163  94.3105 0001088  88.5326 271.5791 15.08839184 80913,6917.883,95.438,540.501,538.995,0.0
49767.0,STARLINK-3192,PAYLOAD,2023-05-13 03:44:56,15.08840596,0.0001298,53.217,89.8479,105.2437,254.8699,7.3185e-05,8.77e-06,0.0,0 STARLINK-3192,1 49767U 21115AV  23133.15620775  .00000877  00000-0  73185-4 0  9998,2 49767  53.2170  89.8479 0001298 105.2437 254.8699 15.08840596 79959,6917.879,95.438,540.642,538.846,0.0
49767.0,STARLINK-3192,PAYLOAD,2023-05-14 06:46:30,15.08838339,0.0001021,53.2176,84.795,99.265,260.8457,7.1968e-05,8.58e-06,0.0,0 STARLINK-3192,1 49767U 21115AV  23134.28229228  .00000858  00000-0  71968-4 0  9997,2 49767  53.2176  84.7950 0001021  99.2650 260.8457 15.08838339 81231,6917.885,95.438,540.457,539.044,0.0
49767.0,STARLINK-3192,PAYLOAD,2023-05-15 12:58:49,15.08841546,8.81e-05,53.2169,79.1477,95.9698,264.1395,3.9839e-06,-2.24e-06,0.0,0 STARLINK-3192,1 49767U 21115AV  23135.54085344 -.00000224  00000-0  39839-5 0  9996,2 49767  53.2169  79.1477 0000881  95.9698 264.1395 15.08841546 81426,6917.876,95.437,540.35,539.131,0.0
49767.0,STARLINK-3192,PAYLOAD,2023-05-16 01:41:55,15.08835215,8.38e-05,53.217,76.7689,100.8556,259.2531,1.0642e-05,-1.18e-06,0.0,0 STARLINK-3192,1 49767U 21115AV  23136.07077897 -.00000118  00000-0  10642-4 0  9991,2 49767  53.2170  76.7689 0000838 100.8556 259.2531 15.08835215 81509,6917.895,95.438,540.34,539.18,0.0
49767.0,STARLINK-3192,PAYLOAD,2023-05-17 04:43:28,15.08842827,8.65e-05,53.2166,71.7144,110.7563,249.3522,4.4742e-05,4.24e-06,0.0,0 STARLINK-3192,1 49767U 21115AV  23137.19685444  .00000424  00000-0  44742-4 0  9995,2 49767  53.2166  71.7144 0000865 110.7563 249.3522 15.08842827 81678,6917.872,95.437,540.335,539.138,0.0
49767.0,STARLINK-3192,PAYLOAD,2023-05-18 02:58:52,15.08839621,0.0001006,53.2177,67.5471,112.9263,247.1835,4.8292e-05,4.81e-06,0.0,0 STARLINK-3192,1 49767U 21115AV  23138.12421699  .00000481  00000-0  48292-4 0  9996,2 49767  53.2177  67.5471 0001006 112.9263 247.1835 15.08839621 81812,6917.882,95.438,540.442,539.051,0.0
49767.0,STARLINK-3192,PAYLOAD,2023-05-18 18:52:44,15.08838404,0.0001081,53.2187,64.575,94.085,266.0265,1.5905e-05,-3.5e-07,0.0,0 STARLINK-3192,1 49767U 21115AV  23138.78662082 -.00000035  00000-0  15905-4 0  9992,2 49767  53.2187  64.5750 0001081  94.0850 266.0265 15.08838404 80808,6917.885,95.438,540.498,539.002,0.0
49767.0,STARLINK-3192,PAYLOAD,2023-05-19 04:25:02,15.08842437,0.0001122,53.2189,62.7906,88.1387,271.9734,4.7391e-05,4.67e-06,0.0,0 STARLINK-3192,1 49767U 21115AV  23139.18405763  .00000467  00000-0  47391-4 0  9990,2 49767  53.2189  62.7906 0001122  88.1387 271.9734 15.08842437 81974,6917.873,95.437,540.514,538.962,0.0
49767.0,STARLINK-3192,PAYLOAD,2023-05-19 18:43:30,15.08840385,0.0001131,53.2188,60.1152,82.3459,277.7662,3.4623e-05,2.63e-06,0.0,0 STARLINK-3192,1 49767U 21115AV  23139.78021921  .00000263  00000-0  34623-4 0  9994,2 49767  53.2188  60.1152 0001131  82.3459 277.7662 15.08840385 80955,6917.879,95.438,540.527,538.962,0.0
49767.0,STARLINK-3192,PAYLOAD,2023-05-20 04:15:49,15.08816681,0.0001224,53.2181,58.3293,98.6884,261.4247,0.00056084,8.643e-05,0.0,0 STARLINK-3192,1 49767U 21115AV  23140.17765598  .00008643  00000-0  56084-3 0  9998,2 49767  53.2181  58.3293 0001224  98.6884 261.4247 15.08816681 82120,6917.952,95.439,540.663,538.97,0.0
49767.0,STARLINK-3192,PAYLOAD,2023-05-21 00:55:49,15.08852406,0.0001092,53.2181,54.4623,93.352,266.7597,8.5571e-05,1.075e-05,0.0,0 STARLINK-3192,1 49767U 21115AV  23141.03876521  .00001075  00000-0  85571-4 0  9999,2 49767  53.2181  54.4623 0001092  93.3520 266.7597 15.08852406 82251,6917.842,95.437,540.463,538.952,0.0
49767.0,STARLINK-3192,PAYLOAD,2023-05-22 00:46:38,15.08830302,0.0001026,53.218,50.0032,93.9169,266.1941,-0.00012512,-2.278e-05,0.0,0 STARLINK-3192,1 49767U 21115AV  23142.03238925 -.00002278  00000-0 -12512-3 0  9992,2 49767  53.2180  50.0032 0001026  93.9169 266.1941 15.08830302 82403,6917.91,95.438,540.485,539.065,0.0
49767.0,STARLINK-3192,PAYLOAD,2023-05-22 10:18:57,15.08829563,0.0001043,53.2185,48.2179,92.8516,267.2596,-0.00010845,-2.013e-05,0.0,0 STARLINK-3192,1 49767U 21115AV  23142.42983198 -.00002013  00000-0 -10845-3 0  9998,2 49767  53.2185  48.2179 0001043  92.8516 267.2596 15.08829563 81350,6917.912,95.438,540.499,539.056,0.0
49767.0,STARLINK-3192,PAYLOAD,2023-05-22 19:51:15,15.08841363,0.0001082,53.2188,46.4355,86.7369,273.3747,-6.6211e-05,-1.341e-05,0.0,0 STARLINK-3192,1 49767U 21115AV  23142.82726267 -.00001341  00000-0 -66211-4 0  9996,2 49767  53.2188  46.4355 0001082  86.7369 273.3747 15.08841363 81415,6917.876,95.437,540.49,538.993,0.0
49767.0,STARLINK-3192,PAYLOAD,2023-05-23 00:37:24,15.08851044,0.0001026,53.2182,45.5442,93.8823,266.2286,1.3716e-05,-6.9e-07,0.0,0 STARLINK-3192,1 49767U 21115AV  23143.02597354 -.00000069  00000-0  13716-4 0  9999,2 49767  53.2182  45.5442 0001026  93.8823 266.2286 15.08851044 82550,6917.847,95.437,540.421,539.002,0.0
49767.0,STARLINK-3192,PAYLOAD,2023-05-24 03:38:58,15.08833391,9.71e-05,53.2182,40.4893,99.2347,260.8755,0.00015276,2.144e-05,0.0,0 STARLINK-3192,1 49767U 21115AV  23144.15206681  .00002144  00000-0  15276-3 0  9991,2 49767  53.2182  40.4893 0000971  99.2347 260.8755 15.08833391 82728,6917.901,95.438,540.437,539.094,0.0
49767.0,STARLINK-3192,PAYLOAD,2023-05-25 22:34:23,15.08838681,0.0001169,53.2195,32.4598,86.9548,273.1578,1.1318e-05,-1.08e-06,0.0,0 STARLINK-3192,1 49767U 21115AV  23145.94054785 -.00000108  00000-0  11318-4 0  9998,2 49767  53.2195  32.4598 0001169  86.9548 273.1578 15.08838681 81884,6917.884,95.438,540.558,538.941,0.0
49767.0,STARLINK-3192,PAYLOAD,2023-05-26 00:09:46,15.08838323,0.0001281,53.2196,32.1607,59.8054,300.3065,5.2212e-05,5.43e-06,0.0,0 STARLINK-3192,1 49767U 21115AV  23146.00678731  .00000543  00000-0  52212-4 0  9999,2 49767  53.2196  32.1607 0001281  59.8054 300.3065 15.08838323 83002,6917.886,95.438,540.637,538.864,0.0
49767.0,STARLINK-3192,PAYLOAD,2023-05-26 20:49:47,15.08839368,0.0001273,53.2201,28.2902,88.2981,271.8157,-6.9816e-05,-1.399e-05,0.0,0 STARLINK-3192,1 49767U 21115AV  23146.86791111 -.00001399  00000-0 -69816-4 0  9991,2 49767  53.2201  28.2902 0001273  88.2981 271.8157 15.08839368 82024,6917.882,95.438,540.628,538.867,0.0
49767.0,STARLINK-3192,PAYLOAD,2023-05-27 01:35:56,15.08835815,0.0001176,53.2197,27.401,88.057,272.0557,-2.4899e-05,-6.84e-06,0.0,0 STARLINK-3192,1 49767U 21115AV  23147.06663177 -.00000684  00000-0 -24899-4 0  9992,2 49767  53.2197  27.4010 0001176  88.0570 272.0557 15.08835815 83169,6917.893,95.438,540.572,538.945,0.0
49767.0,STARLINK-3192,PAYLOAD,2023-05-27 20:40:34,15.08842476,0.0001235,53.2188,23.8371,84.0191,276.0942,6.6145e-05,7.65e-06,0.0,0 STARLINK-3192,1 49767U 21115AV  23147.86150494  .00000765  00000-0  66145-4 0  9991,2 49767  53.2188  23.8371 0001235  84.0191 276.0942 15.08842476 83286,6917.873,95.437,540.592,538.883,0.0
49767.0,STARLINK-3192,PAYLOAD,2023-05-27 22:15:57,15.08843304,0.0001255,53.2188,23.5399,83.382,276.7315,7.3204e-05,8.77e-06,0.0,0 STARLINK-3192,1 49767U 21115AV  23147.92774417  .00000877  00000-0  73204-4 0  9993,2 49767  53.2188  23.5399 0001255  83.3820 276.7315 15.08843304 82186,6917.87,95.437,540.603,538.867,0.0
